              M50 Cartesian                         M50 Keplerian  
    -----------------------------------       --------------------------------
     X    =        1133012.65                 A    =         6780302.45  meter
     Y    =        5038676.22  meter          E    =           .0010959
     Z    =        4386511.85                 I    =           51.31615
     XDOT =      -5513.597384                 Wp   =           69.80192
     YDOT =       4158.564860  meter/sec      RA   =          300.17638  deg
     ZDOT =      -3342.182669                 TA   =           54.17013
                                              MA   =           54.06837
                                              Ha   =            221.047  n.mi
                                              Hp   =            213.685
 
              M50 Cartesian                         J2K Cartesian  
    -----------------------------------       --------------------------------
     X    =        3717233.11                 X    =         1055276.76
     Y    =       16531089.95  feet           Y    =         5050911.71  meter
     Z    =       14391443.06                 Z    =         4391826.92
     XDOT =     -18089.230261                 XDOT =       -5543.454698
     YDOT =      13643.585499  feet/sec       YDOT =        4096.741173  meter/sec
     ZDOT =     -10965.166236                 ZDOT =       -3369.039116
 
              TDR Cartesian                         TDR Cartesian  
    -----------------------------------       --------------------------------
     X    =       12849145.00                 X    =         3916419.40
     Y    =       11016233.84  feet           Y    =         3357748.08  meter
     Z    =       14413551.08                 Z    =         4393250.37
     XDOT =      -5366.571291                 XDOT =       -1635.730929
     YDOT =      20804.949809  feet/sec       YDOT =        6341.348702  meter/sec
     ZDOT =     -11082.588238                 ZDOT =       -3377.972895
  
  
    The mean element set is posted at the UTC for which position is
    just north of the next ascending node relative to the above
    vector time
 
 
    TWO LINE MEAN ELEMENT SET
  
    ISS
    1 25544U 98067A   16120.54214564  .00016717  00000-0  10270-3 0  9110
    2 25544  51.6398 300.6884 0001548  67.8637 292.2680 15.54413741 37417
  
  
    Satellite: ISS
    Catalog Number: 25544
    Epoch time:      16120.54214564   =   yrday.fracday
    Element set:     911
    Inclination:       51.6398  deg
    RA of node:       300.6884  deg
    Eccentricity:     .0001548     
    Arg of perigee:    67.8637  deg
    Mean anomaly:     292.2680  deg
    Mean motion:   15.54413741  rev/day
    Decay rate:    1.67170E-04  rev/day^2
    Epoch rev:            3741
    Checksum:              311
 
 
    Coasting Arc #13 (Orbit 3755)
    ---------------------------------------
 
    Vector Time (GMT): 2016/121/12:00:00.000
    Vector Time (MET): N/A
    Weight (LBS)     : 945238.6
 
              M50 Cartesian                         M50 Keplerian  
    -----------------------------------       --------------------------------
     X    =          36914.11                 A    =         6784218.27  meter
     Y    =       -6010338.32  meter          E    =           .0006187
     Z    =       -3150025.37                 I    =           51.31351
     XDOT =       5423.301169                 Wp   =           76.88861
     YDOT =      -2483.268736  meter/sec      RA   =          295.16587  deg
     ZDOT =       4811.078635                 TA   =          246.62076
                                              MA   =          246.68585
                                              Ha   =            221.098  n.mi
                                              Hp   =            213.571
 
              M50 Cartesian                         J2K Cartesian  
    -----------------------------------       --------------------------------
     X    =         121109.28                 X    =          119422.04
     Y    =      -19718957.76  feet           Y    =        -6009464.26  meter
     Z    =      -10334728.91                 Z    =        -3149645.53
     XDOT =      17792.982839                 XDOT =        5427.296312
     YDOT =      -8147.207139  feet/sec       YDOT =       -2422.599342  meter/sec
     ZDOT =      15784.378725                 ZDOT =        4837.433616
 
              TDR Cartesian                         TDR Cartesian  
    -----------------------------------       --------------------------------
     X    =      -11996113.95                 X    =        -3656415.53
     Y    =      -15652572.47  feet           Y    =        -4770904.09  meter
     Z    =      -10331931.53                 Z    =        -3149172.73
     XDOT =       7780.796854                 XDOT =        2371.586881
     YDOT =     -16437.669438  feet/sec       YDOT =       -5010.201645  meter/sec
     ZDOT =      15899.295535                 ZDOT =        4846.105279
  
  
    The mean element set is posted at the UTC for which position is
    just north of the next ascending node relative to the above
    vector time
 
 
    TWO LINE MEAN ELEMENT SET
  
    ISS
    1 25544U 98067A   16121.50648826  .00016717  00000-0  10270-3 0  9120
    2 25544  51.6391 295.8790 0001655  77.2120 282.9217 15.54439297 37564
  
  
    Satellite: ISS
    Catalog Number: 25544
    Epoch time:      16121.50648826   =   yrday.fracday
    Element set:     912
    Inclination:       51.6391  deg
    RA of node:       295.8790  deg
    Eccentricity:     .0001655     
    Arg of perigee:    77.2120  deg
    Mean anomaly:     282.9217  deg
    Mean motion:   15.54439297  rev/day
    Decay rate:    1.67170E-04  rev/day^2
    Epoch rev:            3756
    Checksum:              328
 
 
    Coasting Arc #14 (Orbit 3771)
    ---------------------------------------
 
    Vector Time (GMT): 2016/122/12:00:00.000
    Vector Time (MET): N/A
    Weight (LBS)     : 945238.6
 
              M50 Cartesian                         M50 Keplerian  
    -----------------------------------       --------------------------------
     X    =       -1109246.35                 A    =         6787350.92  meter
     Y    =        6517816.12  meter          E    =           .0014944
     Z    =        1505548.28                 I    =           51.31185
     XDOT =      -5068.623785                 Wp   =          113.75781
     YDOT =        471.943163  meter/sec      RA   =          290.16554  deg
     ZDOT =      -5738.210241                 TA   =           49.71611
                                              MA   =           49.58557
                                              Ha   =            220.962  n.mi
                                              Hp   =            213.584
 
              M50 Cartesian                         J2K Cartesian  
    -----------------------------------       --------------------------------
     X    =       -3639259.69                 X    =        -1189361.12
     Y    =       21383911.15  feet           Y    =         6504963.89  meter
     Z    =        4939462.87                 Z    =         1499965.00
     XDOT =     -16629.343126                 XDOT =       -5045.650483
     YDOT =       1548.369958  feet/sec       YDOT =         415.390711  meter/sec
     ZDOT =     -18826.149085                 ZDOT =       -5762.776757
 
              TDR Cartesian                         TDR Cartesian  
    -----------------------------------       --------------------------------
     X    =       10603812.37                 X    =         3232042.01
     Y    =       18929502.39  feet           Y    =         5769712.33  meter
     Z    =        4913986.47                 Z    =         1497783.07
     XDOT =     -10475.878973                 XDOT =       -3193.047911
     YDOT =      10816.870676  feet/sec       YDOT =        3296.982182  meter/sec
     ZDOT =     -18932.914358                 ZDOT =       -5770.752296
  
  
    The mean element set is posted at the UTC for which position is
    just north of the next ascending node relative to the above
    vector time
 
 
    TWO LINE MEAN ELEMENT SET
  
    ISS
    1 25544U 98067A   16122.53510951  .00016717  00000-0  10270-3 0  9132
    2 25544  51.6393 290.7487 0001512  70.5117 289.6199 15.54482876 37729
  
  
    Satellite: ISS
    Catalog Number: 25544
    Epoch time:      16122.53510951   =   yrday.fracday
    Element set:     913
    Inclination:       51.6393  deg
    RA of node:       290.7487  deg
    Eccentricity:     .0001512     
    Arg of perigee:    70.5117  deg
    Mean anomaly:     289.6199  deg
    Mean motion:   15.54482876  rev/day
    Decay rate:    1.67170E-04  rev/day^2
    Epoch rev:            3772
    Checksum:              325
 
 
    Coasting Arc #15 (Orbit 3787)
    ---------------------------------------
 
    Vector Time (GMT): 2016/123/12:00:00.000
    Vector Time (MET): N/A
    Weight (LBS)     : 945238.6
 
              M50 Cartesian                         M50 Keplerian  
    -----------------------------------       --------------------------------
     X    =        1989537.71                 A    =         6788284.81  meter
     Y    =       -6477562.53  meter          E    =           .0014078
     Z    =         281034.92                 I    =           51.30524
     XDOT =       4512.405036                 Wp   =           52.29622
     YDOT =       1653.847918  meter/sec      RA   =          285.17023  deg
     ZDOT =       5977.460862                 TA   =          310.74719
                                              MA   =          310.86933
                                              Ha   =            221.072  n.mi
                                              Hp   =            213.474
 
